GLOBALSTAR M094 [+]     
1 39074U 13005C   23247.01724587 -.00000095  00000+0  46236-4 0  9993
2 39074  51.9985   7.7833 0000516  95.5912 264.5014 12.62267044490013
GLOBALSTAR M096 [+]     
1 39075U 13005D   23247.50539326 -.00000112  00000+0 -45952-4 0  9998
2 39075  52.0078  54.3000 0000463  83.4550 276.6369 12.62268201488995
GLOBALSTAR M078 [+]     
1 39076U 13005E   23247.39954680 -.00000079  00000+0  13939-3 0  9990
2 39076  51.9865 140.0186 0000920 143.1366 216.9564 12.62271205487602
GLOBALSTAR M095 [+]     
1 39077U 13005F   23247.42646783 -.00000071  00000+0  18245-3 0  9994
2 39077  51.9794 137.4607 0000304 146.0707 214.0179 12.62268457487469
GLOBALSTAR M087 [+]     
1 52888U 22064A   23247.39488904 -.00000083  00000+0  86803-4 0  9998
2 52888  51.9753 128.3950 0009689   0.8369 359.2547 13.37551889 59143
